[{"OBJECT_NAME":"STARLINK-36513","OBJECT_ID":"2026-005AB","EPOCH":"2026-03-09T22:00:01.999584","MEAN_MOTION":15.27514264,"ECCENTRICITY":0.00018207,"INCLINATION":43.0014,"RA_OF_ASC_NODE":236.558,"ARG_OF_PERICENTER":276.181,"MEAN_ANOMALY":53.517,"EPHEMERIS_TYPE":0,"CLASSIFICATION_TYPE":"U","NORAD_CAT_ID":67429,"ELEMENT_SET_NO":999,"REV_AT_EPOCH":588,"BSTAR":0.0026396053,"MEAN_MOTION_DOT":0.00072949,"MEAN_MOTION_DDOT":0},{"OBJECT_NAME":"CZ-4B R\/B","OBJECT_ID":"2010-051C","EPOCH":"2026-03-09T16:48:37.977120","MEAN_MOTION":15.17426017,"ECCENTRICITY":0.00758037,"INCLINATION":97.7974,"RA_OF_ASC_NODE":110.8647,"ARG_OF_PERICENTER":95.044,"MEAN_ANOMALY":265.9451,"EPHEMERIS_TYPE":0,"CLASSIFICATION_TYPE":"U","NORAD_CAT_ID":37181,"ELEMENT_SET_NO":999,"REV_AT_EPOCH":84355,"BSTAR":0.00029718512,"MEAN_MOTION_DOT":6.328e-5,"MEAN_MOTION_DDOT":0}]
